INTELSAT 10 (IS-10)     
1 26766U 01019A   25254.19479987 -.00000179  00000+0  00000+0 0  9996
2 26766   8.4024  62.0819 0003098 178.6064 356.7919  0.99079668 42814
INTELSAT 902 (IS-902)   
1 26900U 01039A   25251.43783029 -.00000282  00000+0  00000+0 0  9992
2 26900   5.4008  75.2218 0004235  92.6030 287.4497  1.00271041 87872
INTELSAT 904 (IS-904)   
1 27380U 02007A   25254.22565332 -.00000205  00000+0  00000+0 0  9991
2 27380   6.2171  72.5193 0003024 108.0637 223.6935  1.00272332 48967
DIRECTV 5 (TEMPO 1)     
1 27426U 02023A   25254.13794630 -.00000059  00000+0  00000+0 0  9992
2 27426   4.1587  78.7979 0003298 100.4231 110.7439  1.00272071 85321
INTELSAT 905 (IS-905)   
1 27438U 02027A   25254.20389991  .00000092  00000+0  00000+0 0  9993
2 27438   6.0464  73.1508 0002399 100.8099 112.7339  1.00272808 48567
GALAXY 3C (G-3C)        
1 27445U 02030A   25254.21230660 -.00000155  00000+0  00000+0 0  9995
2 27445   3.0182  81.4884 0002278  60.3536 190.2265  1.00271278 43698
INTELSAT 906 (IS-906)   
1 27513U 02041A   25254.17243978  .00000011  00000+0  00000+0 0  9994
2 27513   5.0889  76.3596 0002309 120.8354 279.4746  1.00272537 84236
GALAXY 13 (HORIZONS-1)  
1 27954U 03044A   25254.20138656  .00000130  00000+0  00000+0 0  9999
2 27954   0.6920  87.9509 0002024  82.7625 102.2632  1.00273783 43770
INTELSAT 10-02          
1 28358U 04022A   25254.23094002 -.00000014  00000+0  00000+0 0  9996
2 28358   0.0375 273.1796 0000911 293.0217 226.4621  1.00271912 77755
XM-3 (RHYTHM)           
1 28626U 05008A   25254.07129937 -.00000202  00000+0  00000+0 0  9996
2 28626   0.0280 306.1576 0000415 211.5394 132.0053  1.00269927 39821
DIRECTV 8               
1 28659U 05019A   25253.70791829 -.00000002  00000+0  00000+0 0  9996
2 28659   0.0138 224.0381 0003137 322.8600 298.9085  1.00272443 74273
GALAXY 28 (G-28)        
1 28702U 05022A   25254.07077937 -.00000189  00000+0  00000+0 0  9993
2 28702   2.5753  82.4243 0001977  98.2303 106.4676  1.00272146 49180
GALAXY 16 (G-16)        
1 29236U 06023A   25254.21152660 -.00000130  00000+0  00000+0 0  9997
2 29236   0.0317 218.2263 0002706 305.7213 163.6860  1.00271611 70179
DIRECTV 9S              
1 29494U 06043A   25254.21109326 -.00000116  00000+0  00000+0 0  9990
2 29494   1.6948  84.3437 0002987  87.0755 153.8680  1.00271249 48587
GALAXY 17 (G-17)        
1 31307U 07016B   25254.19211590 -.00000209  00000+0  00000+0 0  9994
2 31307   2.2595  83.4612 0004212 136.7459 114.4317  1.00271797 67005
DIRECTV 10              
1 31862U 07032A   25254.13933297  .00000000  00000+0  00000+0 0  9995
2 31862   0.0054 327.8301 0000714 289.3367  40.5954  1.00270034 42791
INTELSAT 11 (IS-11)     
1 32253U 07044B   25254.14245299 -.00000041  00000+0  00000+0 0  9998
2 32253   2.8321  82.1118 0007730 117.6974 114.8167  0.99047695 65688
HORIZONS-2              
1 32388U 07063B   25254.13030656 -.00000256  00000+0  00000+0 0  9994
2 32388   1.8758  84.1069 0001961 123.4366 115.9859  1.00272239 65011
DIRECTV 11              
1 32729U 08013A   25254.21143993 -.00000129  00000+0  00000+0 0  9996
2 32729   0.0353 310.9850 0000134 247.8794 128.5422  1.00271206 42796
GALAXY 18 (G-18)        
1 32951U 08024A   25253.92120587  .00000022  00000+0  00000+0 0  9997
2 32951   0.0131 220.9381 0003127 316.9578  20.9376  1.00273409 43059
INTELSAT 25 (IS-25)     
1 33153U 08034A   25254.22487332 -.00000227  00000+0  00000+0 0  9999
2 33153   1.9828  83.7977 0005064 114.9235 201.2437  1.00269966 62899
GALAXY 19 (G-19)        
1 33376U 08045A   25253.85507892 -.00000142  00000+0  00000+0 0  9996
2 33376   0.0515 267.0875 0002927 275.1754  18.7063  1.00271631 62106
FM-5                    
1 35493U 09034A   25254.07129937 -.00000203  00000+0  00000+0 0  9990
2 35493   0.0398 271.5192 0000358 184.7539 193.5765  1.00269445 43842
INTELSAT 14 (IS-14)     
1 36097U 09064A   25254.22218664 -.00000277  00000+0  00000+0 0  9998
2 36097   0.0263 274.3764 0002519 271.8299 199.2628  1.00267111 57802
INTELSAT 15 (IS-15)     
1 36106U 09067A   25254.10527285 -.00000188  00000+0  00000+0 0  9992
2 36106   0.0186 127.3244 0002368  56.1300 289.9673  1.00272216 38433
DIRECTV 12              
1 36131U 09075A   25254.08770424 -.00000106  00000+0  00000+0 0  9991
2 36131   0.0161 338.8290 0000354 211.5662  88.8213  1.00271021 43755
INTELSAT 16 (IS-16)     
1 36397U 10006A   25254.07329271 -.00000248  00000+0  00000+0 0  9997
2 36397   0.0334 285.0402 0002157 255.6191 119.8754  1.00271652 56858
XM-5                    
1 37185U 10053A   25254.20831992 -.00000026  00000+0  00000+0 0  9992
2 37185   0.0562 273.2678 0000193 164.3708 232.6398  1.00270335 54683
INTELSAT 17 (IS-17)     
1 37238U 10065B   25254.09767093 -.00000004  00000+0  00000+0 0  9997
2 37238   0.0185 196.9154 0002735 348.0009 266.6132  1.00271521 50443
INTELSAT 28 (IS-28)     
1 37392U 11016A   25254.22478666 -.00000228  00000+0  00000+0 0  9993
2 37392   1.0791  86.3089 0004450  90.6348 222.7862  1.00271671 50482
INTELSAT 18 (IS-18)     
1 37834U 11056A   25254.19540654  .00000050  00000+0  00000+0 0  9993
2 37834   0.0149 229.6571 0001861 301.3641  69.7901  1.00271622 51017
INTELSAT 22 (IS-22)     
1 38098U 12011A   25254.17408646 -.00000062  00000+0  00000+0 0  9994
2 38098   0.0154 126.2338 0001962  56.2029 302.7841  1.00271715  4392
INTELSAT 19 (IS-19)     
1 38356U 12030A   25253.83583883  .00000000  00000+0  00000+0 0  9992
2 38356   0.0158 152.2395 0003041  31.1411 273.6197  1.00269625 47644
INTELSAT 20 (IS-20)     
1 38740U 12043A   25253.95923892 -.00000027  00000+0  00000+0 0  9994
2 38740   0.0097 167.6972 0001459  10.8668 225.4933  1.00273107 47949
INTELSAT 21 (IS-21)     
1 38749U 12045A   25254.21958663 -.00000288  00000+0  00000+0 0  9998
2 38749   0.0433 272.0803 0001986 271.0762 188.3723  1.00269342 47723
INTELSAT 23 (IS-23)     
1 38867U 12057A   25254.22062663 -.00000288  00000+0  00000+0 0  9999
2 38867   0.0457 258.9408 0001169 328.1424 149.8381  1.00270165 47150
FM-6                    
1 39360U 13058A   25254.20805992 -.00000020  00000+0  00000+0 0  9992
2 39360   0.0234 131.4358 0002308  37.8531 139.9236  1.00272850 43260
INTELSAT 30 (IS-30)     
1 40271U 14062A   25254.21230660 -.00000154  00000+0  00000+0 0  9994
2 40271   0.0173  98.0752 0001289 309.0122 284.7702  1.00270270  3984
DIRECTV 14              
1 40333U 14078B   25254.15253149  .00000000  00000+0  00000+0 0  9999
2 40333   0.0179 154.5555 0000768  70.0234  81.5215  1.00269952 39243
DIRECTV 15              
1 40663U 15026A   25254.06800603 -.00000105  00000+0  00000+0 0  9999
2 40663   0.0343  95.5209 0000172  64.9991 111.4400  1.00270605 37663
SKY MEXICO-1            
1 40664U 15026B   25254.07277271 -.00000237  00000+0  00000+0 0  9996
2 40664   0.0191 128.5473 0002185  57.7459 111.4876  1.00270492 37650
INTELSAT 34 (IS-34)     
1 40874U 15039A   25254.22010663  .00000000  00000+0  00000+0 0  9997
2 40874   0.0156 169.9946 0001443 181.4114  22.8130  1.00267778 36826
INTELSAT 31 (IS-31)     
1 41581U 16035A   25254.21230660 -.00000154  00000+0  00000+0 0  9991
2 41581   0.0200 222.7252 0001908   2.3272 106.8014  1.00270131 33886
INTELSAT 36 (IS-36)     
1 41747U 16053A   25253.95923892  .00000000  00000+0  00000+0 0  9990
2 41747   0.0129 134.7004 0001611 196.1218  73.2059  1.00271027 33140
INTELSAT 32E (IS-32E)   
1 41945U 17007B   25254.22253331 -.00000272  00000+0  00000+0 0  9997
2 41945   0.0206 105.2809 0000264 208.0182  74.1202  1.00269192 31427
INTELSAT 35E (IS-35E)   
1 42818U 17041A   25254.22426666 -.00000241  00000+0  00000+0 0  9994
2 42818   0.0236 247.6338 0002530 317.4713 191.6275  1.00272068 30016
INTELSAT 37E (IS-37E)   
1 42950U 17059A   25254.00669708 -.00000144  00000+0  00000+0 0  9994
2 42950   0.0186 197.3487 0002990 345.1067 152.2249  1.00269957 29265
AZERSPACE 2 (IS-38)     
1 43632U 18074A   25253.96850336  .00000000  00000+0  00000+0 0  9993
2 43632   0.0208 148.6407 0001405  42.7606 192.5850  1.00270955 25641
HORIZONS-3E             
1 43633U 18074B   25253.90777248 -.00000033  00000+0  00000+0 0  9995
2 43633   0.0312 262.5498 0001844  27.8405 195.5883  1.00271171 25541
AT&T T-16               
1 44333U 19034A   25254.21109326 -.00000118  00000+0  00000+0 0  9995
2 44333   0.0255 100.7302 0000149  87.6918 137.1837  1.00269444 22832
INTELSAT 39 (IS-39)     
1 44476U 19049B   25253.95793891  .00000000  00000+0  00000+0 0  9994
2 44476   0.0209 153.3631 0000805 160.2430  83.4162  1.00270341 22320
GALAXY 30 (G-30)        
1 46114U 20056C   25254.20632657  .00000034  00000+0  00000+0 0  9993
2 46114   0.0169 204.5604 0002238 330.0079 125.1869  1.00271712 18497
GALAXY 33 (G-33)        
1 54026U 22128A   25254.06202601  .00000076  00000+0  00000+0 0  9998
2 54026   0.0214 126.9190 0001890  51.3261  61.4383  1.00273057 10944
GALAXY 34 (G-34)        
1 54027U 22128B   25254.06271934  .00000056  00000+0  00000+0 0  9992
2 54027   0.0101 149.5309 0001451  25.2812  69.1168  1.00274226 11113
GALAXY 31 (G-31)        
1 54243U 22153A   25254.06436602  .00000010  00000+0  00000+0 0  9995
2 54243   0.0113 153.3331 0001494  50.3008  48.8884  1.00272579  4331
GALAXY 32 (G-32)        
1 54244U 22153B   25253.97309212  .00000000  00000+0  00000+0 0  9990
2 54244   0.0168 139.2298 0000222 137.3231 333.0109  1.00270051 10349
GALAXY 35 (G-35)        
1 54741U 22170A   25254.21265326 -.00000165  00000+0  00000+0 0  9999
2 54741   0.0072 164.3826 0002006   6.7874 162.7663  1.00272337 10098
GALAXY 36 (G-36)        
1 54742U 22170B   25253.92805256 -.00000188  00000+0  00000+0 0  9994
2 54742   0.0166 206.5554 0001836 292.6676  96.0907  1.00272458  9975
GALAXY 37 (G-37)        
1 57493U 23112A   25254.06323934  .00000045  00000+0  00000+0 0  9992
2 57493   0.0213 258.0508 0002165 290.9474  57.1269  1.00273273  7746
